RADUGA 30 [-]           
1 22836U 93062A   17345.08938222 -.00000177  00000-0  00000-0 0  9991
2 22836  14.8597  13.5150 0007890 257.2324 282.3979  1.00276399 14812
